STARLINK-1451
1 45668U 20035M   26090.38142682  .00029236  00000+0  17326-2 0  9992
2 45668  53.0529 328.0428 0001953 100.0712 260.0499 15.11174609322025
